{"type": "FeatureCollection", "features": [{"type": "Feature", "geometry": {"type": "Polygon", "coordinates": [[[-93.32320800040644, 45.04057700008979], [-93.32323299962249, 45.04044799999259], [-93.32312700021559, 45.04044700025145], [-93.32133200008958, 45.04043399980708], [-93.32107099997368, 45.0404330000657], [-93.31995899973798, 45.040423999853815], [-93.31941499976486, 45.04042099999446], [-93.31931500020575, 45.04041899987656], [-93.31931699985557, 45.04046799988891], [-93.3193820001529, 45.04201900013629], [-93.31892799969313, 45.04191599970606], [-93.31849900024606, 45.04178999987661], [-93.31818600025161, 45.04160299968878], [-93.31793500018145, 45.04136800004902], [-93.31795500027293, 45.04124799991466], [-93.31803100044093, 45.04116100010424], [-93.31807699957336, 45.04106099985957], [-93.31810000003789, 45.04095800024363], [-93.31806900007575, 45.04019500019234], [-93.31930500016001, 45.040180000199165], [-93.3193040003351, 45.040128999812104], [-93.31927500002277, 45.03855600027521], [-93.31925199955825, 45.037666000119245], [-93.31923999986269, 45.03735400013406], [-93.31922399996915, 45.03693800004673], [-93.3192900000914, 45.03689600007734], [-93.31937399975698, 45.03680800019269], [-93.31942700035873, 45.03670899976394], [-93.31943499985636, 45.03660599993119], [-93.31942700035873, 45.03644299985397], [-93.31941999978774, 45.035460999849526], [-93.3194189999628, 45.03545100029678], [-93.31916700006774, 45.03545100029678], [-93.31879399979883, 45.03545799972997], [-93.31874799976808, 45.03339800026344], [-93.31870299956223, 45.031341999887466], [-93.31866499992742, 45.02953300012448], [-93.31861899989666, 45.0277179999104], [-93.31857299986589, 45.02590599990676], [-93.31852699983514, 45.02409399968871], [-93.3184809998044, 45.02228199989665], [-93.31843599959856, 45.02047300017123], [-93.31843599959856, 45.018677000112575], [-93.31842800010095, 45.01686499969235], [-93.31843599959856, 45.01506799994866], [-93.31843599959856, 45.01425199982899], [-93.3184740001317, 45.01377100002231], [-93.31849099985014, 45.01348899998003], [-93.31849199967505, 45.013427000135806], [-93.31849199967505, 45.01337700025358], [-93.31849400022318, 45.01324600001207], [-93.31840700018455, 45.01322999972448], [-93.3179960002808, 45.013206999819225], [-93.3176770004386, 45.01320099978722], [-93.3174599998053, 45.013206999819225], [-93.31726399998671, 45.013265999888915], [-93.31649700043083, 45.01325200003935], [-93.31587999976445, 45.01325200003935], [-93.31459799964944, 45.01325200003935], [-93.31333899999896, 45.013249000025766], [-93.31333999982388, 45.01360299990762], [-93.31322799967087, 45.01365699979413], [-93.31273999977427, 45.01365699979413], [-93.31268399969774, 45.01365999978629], [-93.31218199955742, 45.01365699979413], [-93.31204400036347, 45.01366099999539], [-93.31204199981532, 45.01324799980953], [-93.31076800009625, 45.013244999795724], [-93.30950900044577, 45.013244999795724], [-93.30823499982837, 45.01324100020049], [-93.30697600017788, 45.01323299973906], [-93.30570199956047, 45.013221999896544], [-93.30444299991, 45.013214000067485], [-93.30318500008444, 45.01320300022132], [-93.30191800003804, 45.013194999754596], [-93.30063599992303, 45.013185000122135], [-93.29938499977015, 45.01318000030527], [-93.29936200020394, 45.01317600007041], [-93.29811100005107, 45.013168000234934], [-93.29808400028689, 45.01317199983527], [-93.29684400000467, 45.01316099998104], [-93.2962969996585, 45.01315900018054], [-93.29623899993216, 45.01325300025552], [-93.29624999980282, 45.01349199998105], [-93.29619799992429, 45.013496000193825], [-93.29593299961041, 45.013496000193825], [-93.29586300018855, 45.013430000140076], [-93.29574900038571, 45.01348899998003], [-93.29570099980684, 45.01349199998105], [-93.29557899960808, 45.01349199998105], [-93.29546800017833, 45.01349199998105], [-93.29546800017833, 45.01390899986128], [-93.2944510003772, 45.01389800014861], [-93.29444700017923, 45.01349199998105], [-93.29431300028492, 45.013485999978855], [-93.29420000030701, 45.01348100018827], [-93.29373199960357, 45.01348100018827], [-93.29318699980551, 45.013466999756204], [-93.29305299991123, 45.013466999756204], [-93.29305299991123, 45.01315900018054], [-93.29305999958392, 45.01314100006753], [-93.29178599986483, 45.01313399981034], [-93.29162600003124, 45.01313000020734], [-93.29053499971194, 45.01312599996899], [-93.28980999998886, 45.0131229999488], [-93.28927600006148, 45.01311899971001], [-93.28800999984, 45.013110999866576], [-93.28649099989852, 45.013110999866576], [-93.28642300012645, 45.013110999866576], [-93.28496600010925, 45.013110999866576], [-93.28488900011637, 45.013110999866576], [-93.28344700016777, 45.013110999866576], [-93.28335599993119, 45.01311500010592], [-93.2827590002546, 45.01311500010592], [-93.28238799963552, 45.01311500010592], [-93.2819209996553, 45.01311300030382], [-93.28183699998971, 45.01311300030382], [-93.28078500002846, 45.01311500010592], [-93.28068499957104, 45.01311500010592], [-93.27881300035045, 45.01311500010592], [-93.27872499958859, 45.01311500010592], [-93.27783199963602, 45.01311500010592], [-93.277795999651, 45.013103000022014], [-93.27622200035626, 45.01310000000062], [-93.27591000018673, 45.0131060000432], [-93.27488900018761, 45.01312599996899], [-93.27507300031064, 45.01474000010271], [-93.27589299956996, 45.015911000015706], [-93.27660300012276, 45.01771099975572], [-93.27713200002727, 45.02029699992448], [-93.27746599993812, 45.02192799969528], [-93.27793100026852, 45.0229599999614], [-93.27814600035369, 45.02384400005972], [-93.27862900022744, 45.024982000099875], [-93.28002500014527, 45.027175999984145], [-93.28118400023664, 45.02876199990271], [-93.28146799991877, 45.02931200016916], [-93.28219199981696, 45.030750999956325], [-93.2826959996071, 45.03242700002741], [-93.28299000023328, 45.03235600016277], [-93.28405899991297, 45.032098999951934], [-93.2860180000705, 45.03162799983068], [-93.28636899969979, 45.03155900003737], [-93.28672799972499, 45.03151299970567], [-93.28701300013033, 45.03149500028349], [-93.28724599975884, 45.03149799997595], [-93.2872659998503, 45.03172800005523], [-93.28727400024623, 45.031838000290826], [-93.28727599989605, 45.03199500018585], [-93.28726000000253, 45.032252000228844], [-93.28721200032196, 45.03260600007316], [-93.28714600019971, 45.032990000226064], [-93.28708000007748, 45.03328600011962], [-93.28693699996235, 45.03376400020262], [-93.28668400024236, 45.034351999949465], [-93.28643999984489, 45.03494600029622], [-93.28601399987254, 45.03593500026064], [-93.28572500016755, 45.036634000267675], [-93.28557200000667, 45.03698699986622], [-93.2854199996707, 45.03737300004753], [-93.28525900001222, 45.03781499969508], [-93.28517100014867, 45.03804799976215], [-93.28500399974408, 45.03857499978956], [-93.28488699956822, 45.03911800008143], [-93.28481700014633, 45.03937900018364], [-93.2845259998932, 45.04334499986188], [-93.28448700043346, 45.04393199985977], [-93.28481299994837, 45.0439359998499], [-93.28519500043811, 45.04394100015454], [-93.28560799999167, 45.04393399985487], [-93.28623999982834, 45.04269400026415], [-93.2865600003938, 45.04212199974634], [-93.28659300000577, 45.04201999984991], [-93.28713199995602, 45.04033999992365], [-93.28755200008058, 45.04033299981813], [-93.28759800011133, 45.04032900021081], [-93.28887900040142, 45.04030599976575], [-93.29016900001405, 45.04030200015658], [-93.29144299973314, 45.040297999912326], [-93.29272499984816, 45.04029500004636], [-93.29399899956725, 45.04029099980167], [-93.29527300018466, 45.04028299994615], [-93.29655500029968, 45.04027899970061], [-93.29780899992727, 45.04027200022235], [-93.29783599969144, 45.04027599983366], [-93.29805400014965, 45.040273999710685], [-93.29830199984677, 45.04027200022235], [-93.29870100005495, 45.04027000009923], [-93.29913200005018, 45.040250000133696], [-93.29968100004616, 45.040248999754375], [-93.30052499959494, 45.040250999878225], [-93.30063799957286, 45.04026700023181], [-93.30067899958073, 45.04027299996655], [-93.29907400032384, 45.03798700026946], [-93.29906500010301, 45.03765899968658], [-93.30034899986785, 45.03794600022004], [-93.30110000042853, 45.03811400000373], [-93.30172200021946, 45.038252999984664], [-93.30414599980908, 45.03879499975372], [-93.30449899998649, 45.03887300016691], [-93.30517100000614, 45.039020000241514], [-93.30538899956602, 45.03906900018248], [-93.30667599970393, 45.03935200031583], [-93.30790500011547, 45.039621999690084], [-93.30919599955301, 45.03990600001264], [-93.31048600006393, 45.04020300006016], [-93.31088299972399, 45.04029500004636], [-93.31173999969154, 45.04048799977826], [-93.31426999958637, 45.04105800003356], [-93.3164399996311, 45.041524999823515], [-93.3177900004165, 45.04181499979433], [-93.31788400012782, 45.041834999847566], [-93.3193889998256, 45.042160000208874], [-93.31943300020654, 45.042169999858665], [-93.31943300020654, 45.04202199991186], [-93.31943300020654, 45.04190199987978], [-93.32018600041702, 45.042072000168325], [-93.32030500024271, 45.04209999973425], [-93.32260599980867, 45.04264399991654], [-93.32295300013833, 45.04210700025832], [-93.32296999985675, 45.04200699976292], [-93.32311200014698, 45.04115400009913], [-93.32313800008626, 45.04100100013665], [-93.32320800040644, 45.04057700008979]]]}, "properties": {"ZCTA5": "55412"}}, {"type": "Feature", "geometry": {"type": "Polygon", "coordinates": [[[-93.32061200038937, 44.98937500024675], [-93.32057200020641, 44.98936100027595], [-93.32032000031133, 44.98925399975108], [-93.32009099998247, 44.98913200026864], [-93.31987800044546, 44.988990999809], [-93.31968699975141, 44.98883400015976], [-93.31951900042026, 44.988662999939194], [-93.31937399975698, 44.988482999724376], [-93.31899999966316, 44.98795299972717], [-93.31854100007885, 44.9871010001896], [-93.31846800028393, 44.98696500001605], [-93.31846800028393, 44.98690700021759], [-93.31846800028393, 44.98669900023879], [-93.31846800028393, 44.9855340001204], [-93.31846900010882, 44.98518499995097], [-93.31846800028393, 44.984939999849836], [-93.31846800028393, 44.984879000315395], [-93.31846900010882, 44.984511000309524], [-93.31846900010882, 44.98444999968316], [-93.31846800028393, 44.98405099983934], [-93.31841999970501, 44.98404800020264], [-93.31796799979342, 44.984022999835226], [-93.31745300013259, 44.98400899982803], [-93.3169319997257, 44.984018000014544], [-93.31674599995286, 44.98402700019972], [-93.31656199982984, 44.984022999835226], [-93.31640100017135, 44.984018000014544], [-93.3161009996974, 44.984018000014544], [-93.3158339997337, 44.984030999928564], [-93.31468800006112, 44.98414399993649], [-93.31345000032704, 44.984303999982856], [-93.31337699963379, 44.98431400020919], [-93.3123349997183, 44.98444800015108], [-93.31211100031062, 44.98447100016653], [-93.31169700003385, 44.98450000003469], [-93.31105500015143, 44.984534999746536], [-93.3103639998652, 44.98455099978917], [-93.30967199975407, 44.98455299995305], [-93.30828800043014, 44.984511000309524], [-93.30702899988134, 44.98450300028313], [-93.30577899955337, 44.98454299976841], [-93.30451200040528, 44.984511000309524], [-93.30323799978787, 44.984487000227084], [-93.30168899970919, 44.98450300028313], [-93.30059800028819, 44.984511000309524], [-93.29819499971664, 44.98447100016653], [-93.29819499971664, 44.984262000156896], [-93.29556100006475, 44.98429399975478], [-93.29435199974466, 44.98427100030371], [-93.2941700001698, 44.984269000130034], [-93.29391800027472, 44.984271999755165], [-93.29394199966583, 44.98412699969088], [-93.29397500017612, 44.98407000028821], [-93.29400600013827, 44.984013000193485], [-93.29401799983383, 44.98396099986816], [-93.29403200007752, 44.98389700028274], [-93.29404600032125, 44.983830999801484], [-93.2940589998417, 44.98376599997531], [-93.29406999971236, 44.98370300026893], [-93.29407499973523, 44.98363899976009], [-93.29407200026048, 44.98357700001313], [-93.2940649996895, 44.98352100016352], [-93.29405700019187, 44.98346799992646], [-93.29404299994818, 44.983421999716924], [-93.29401299981095, 44.98336699981855], [-93.29398000019899, 44.983316999749626], [-93.29396299958223, 44.983291000230274], [-93.29395000006176, 44.98326999995005], [-93.29390700040406, 44.98321700011629], [-93.29386100037331, 44.983170000234736], [-93.29381600016745, 44.98313599979621], [-93.29376199974078, 44.983098000179254], [-93.29370900003734, 44.98306700002157], [-93.29364999958779, 44.98304000028057], [-93.29346999966273, 44.98318100012938], [-93.2934100002866, 44.983188000234506], [-93.29329499976056, 44.98320000023119], [-93.29313099972903, 44.98316499970431], [-93.29296199967462, 44.983130999898215], [-93.29272900004612, 44.983146000226284], [-93.29252499983163, 44.98317500012933], [-93.29221699986005, 44.983177999811744], [-93.29199799957694, 44.98316800002261], [-93.29176199957537, 44.98314000022258], [-93.29154900003836, 44.98312800021334], [-93.2913630002655, 44.98313400021829], [-93.29112200024109, 44.98316499970431], [-93.29083799966067, 44.98316699991654], [-93.29084600005658, 44.98364400024918], [-93.29085299972925, 44.9837280001405], [-93.29089600028529, 44.983855000158556], [-93.29101500011096, 44.984131000048144], [-93.29107899968507, 44.98425899989585], [-93.29062400029872, 44.984255000182905], [-93.2886299999811, 44.98424199968429], [-93.2883069999409, 44.984243999858954], [-93.28813500041177, 44.984246000033544], [-93.28796399980924, 44.98424700012079], [-93.28779499975484, 44.984255000182905], [-93.28748699978325, 44.98424100023235], [-93.28617700007915, 44.9842260001908], [-93.28533199980714, 44.984218000124635], [-93.28553000017386, 44.984456000185155], [-93.28553000017386, 44.9846890001308], [-93.28553000017386, 44.985312999986775], [-93.28553000017386, 44.98557400015701], [-93.28553000017386, 44.98633800020049], [-93.28553000017386, 44.98635499979042], [-93.28550900025748, 44.98653999993531], [-93.28546900007451, 44.986676999891415], [-93.28537899966281, 44.98685099980882], [-93.2852790001037, 44.98696199989642], [-93.28409599972288, 44.98784300031244], [-93.28323899975531, 44.988441999797594], [-93.28303100024117, 44.98858799975955], [-93.28287499970725, 44.98869700027632], [-93.28231099964263, 44.98909000016801], [-93.28180299965452, 44.98944400005275], [-93.28126500042748, 44.98982000007718], [-93.28059500005767, 44.99028699987014], [-93.28092899996852, 44.990902000038105], [-93.28289800017178, 44.99088199997632], [-93.28293199960865, 44.991075999836255], [-93.28292800030901, 44.99150099995568], [-93.28293900017967, 44.991968999980955], [-93.2814279997358, 44.991981999997705], [-93.27981799955772, 44.99199500001149], [-93.27884500013751, 44.99200300026287], [-93.27866100001448, 44.99200400021478], [-93.27820599972982, 44.992008000022345], [-93.27794600033714, 44.992009999926026], [-93.27751000031904, 44.99201299978139], [-93.27637499961882, 44.99202000007859], [-93.27576600024668, 44.99220900015676], [-93.27549000006216, 44.99229400015006], [-93.27519200013633, 44.99238600026983], [-93.27438600022238, 44.992635000074166], [-93.27364499970744, 44.99286400006178], [-93.27567800038312, 44.996365000070554], [-93.2757679998965, 44.99652000030712], [-93.27543099961261, 44.99898799993009], [-93.27507900015843, 45.000774000164235], [-93.27472299960795, 45.00255900021878], [-93.27442399985722, 45.004410000280224], [-93.27442499968211, 45.00576499988767], [-93.27443599955276, 45.00594299975732], [-93.27488900018761, 45.01312599996899], [-93.27591000018673, 45.0131060000432], [-93.27622200035626, 45.01310000000062], [-93.277795999651, 45.013103000022014], [-93.27783199963602, 45.01311500010592], [-93.27872499958859, 45.01311500010592], [-93.27881300035045, 45.01311500010592], [-93.28068499957104, 45.01311500010592], [-93.28078500002846, 45.01311500010592], [-93.28183699998971, 45.01311300030382], [-93.2819209996553, 45.01311300030382], [-93.28238799963552, 45.01311500010592], [-93.2827590002546, 45.01311500010592], [-93.28335599993119, 45.01311500010592], [-93.28344700016777, 45.013110999866576], [-93.28488900011637, 45.013110999866576], [-93.28496600010925, 45.013110999866576], [-93.28642300012645, 45.013110999866576], [-93.28649099989852, 45.013110999866576], [-93.28800999984, 45.013110999866576], [-93.28927600006148, 45.01311899971001], [-93.28980999998886, 45.0131229999488], [-93.29053499971194, 45.01312599996899], [-93.29162600003124, 45.01313000020734], [-93.29178599986483, 45.01313399981034], [-93.29305999958392, 45.01314100006753], [-93.29305299991123, 45.01315900018054], [-93.29305299991123, 45.013466999756204], [-93.29318699980551, 45.013466999756204], [-93.29373199960357, 45.01348100018827], [-93.29420000030701, 45.01348100018827], [-93.29431300028492, 45.013485999978855], [-93.29444700017923, 45.01349199998105], [-93.2944510003772, 45.01389800014861], [-93.29546800017833, 45.01390899986128], [-93.29546800017833, 45.01349199998105], [-93.29557899960808, 45.01349199998105], [-93.29570099980684, 45.01349199998105], [-93.29574900038571, 45.01348899998003], [-93.29586300018855, 45.013430000140076], [-93.29593299961041, 45.013496000193825], [-93.29619799992429, 45.013496000193825], [-93.29624999980282, 45.01349199998105], [-93.29623899993216, 45.01325300025552], [-93.2962969996585, 45.01315900018054], [-93.29684400000467, 45.01316099998104], [-93.29808400028689, 45.01317199983527], [-93.29811100005107, 45.013168000234934], [-93.29936200020394, 45.01317600007041], [-93.29938499977015, 45.01318000030527], [-93.30063599992303, 45.013185000122135], [-93.30191800003804, 45.013194999754596], [-93.30318500008444, 45.01320300022132], [-93.30444299991, 45.013214000067485], [-93.30570199956047, 45.013221999896544], [-93.30697600017788, 45.01323299973906], [-93.30823499982837, 45.01324100020049], [-93.30950900044577, 45.013244999795724], [-93.31076800009625, 45.013244999795724], [-93.31204199981532, 45.01324799980953], [-93.31204400036347, 45.01366099999539], [-93.31218199955742, 45.01365699979413], [-93.31268399969774, 45.01365999978629], [-93.31273999977427, 45.01365699979413], [-93.31322799967087, 45.01365699979413], [-93.31333999982388, 45.01360299990762], [-93.31333899999896, 45.013249000025766], [-93.31459799964944, 45.01325200003935], [-93.31587999976445, 45.01325200003935], [-93.31649700043083, 45.01325200003935], [-93.31726399998671, 45.013265999888915], [-93.3174599998053, 45.013206999819225], [-93.3176770004386, 45.01320099978722], [-93.3179960002808, 45.013206999819225], [-93.31840700018455, 45.01322999972448], [-93.31849400022318, 45.01324600001207], [-93.31849900024606, 45.012868999787685], [-93.31851299959145, 45.011704999705636], [-93.31851400031468, 45.011577000186406], [-93.31851400031468, 45.01149099997165], [-93.31851699978941, 45.01020500011468], [-93.31852000016247, 45.00964700012886], [-93.31852000016247, 45.00783899974817], [-93.31852000016247, 45.00604200004845], [-93.31852000016247, 45.00560000020319], [-93.31852699983514, 45.00455499984539], [-93.31852699983514, 45.00265099973829], [-93.31853400040616, 45.00182500021076], [-93.31856600019321, 45.00176500000724], [-93.3185999996301, 45.001741000162276], [-93.3185650003683, 45.001583999870036], [-93.3185300002082, 45.00143100020294], [-93.3184459996443, 45.001040999838615], [-93.31844800019243, 45.00063700023846], [-93.31845900006309, 44.99890599983176], [-93.31870000008752, 44.998938000147476], [-93.31917399974044, 44.99873799994538], [-93.31911400036431, 44.997949999863835], [-93.31929599993917, 44.99794599983579], [-93.31942800018365, 44.99784999971385], [-93.3194809998871, 44.99793900026241], [-93.3196280002002, 44.99794599983579], [-93.31963499987287, 44.997270999836005], [-93.31974799985079, 44.997259000244], [-93.31987000004953, 44.99724600015384], [-93.31986000000379, 44.99664299981534], [-93.32006699969301, 44.99637199983616], [-93.31999999974587, 44.996262000062586], [-93.31980099955423, 44.9958949999663], [-93.31963300022306, 44.99552200008237], [-93.31954199998648, 44.99522400016417], [-93.31945800032088, 44.99487699971784], [-93.31939700022153, 44.99452600007984], [-93.31935899968836, 44.994175000197764], [-93.31934399961976, 44.99382400007166], [-93.31926400015212, 44.99167000005271], [-93.31925999995416, 44.991558000228345], [-93.31958499964416, 44.99156000014768], [-93.31957100029878, 44.991517999920354], [-93.31948500008507, 44.99125400023697], [-93.31954700000934, 44.991280999921095], [-93.31952000024516, 44.991071999963694], [-93.31955200003222, 44.99102200026214], [-93.31961999980426, 44.99096100021141], [-93.31970900039104, 44.99090899983569], [-93.3199090004076, 44.99039099979707], [-93.31999899992095, 44.989999999905216], [-93.31998700022541, 44.98993700006149], [-93.32006800041624, 44.98991499968629], [-93.32012000029478, 44.98986900020286], [-93.32043300028923, 44.989493999860244], [-93.32061200038937, 44.98937500024675]]]}, "properties": {"ZCTA5": "55411"}}]}